NOAA 1 [-]              
1 04793U 70106A   24012.73942097 -.00000015  00000+0  18097-3 0  9991
2 04793 101.4733  70.1136 0031282 282.5696 191.8981 12.54023192429579
NOAA 2 (ITOS-D) [-]     
1 06235U 72082A   24012.93234177 -.00000032  00000+0  92363-4 0  9992
2 06235 102.0089  10.1476 0004164  60.0211 355.0824 12.53173260343931
NOAA 3 [-]              
1 06920U 73086A   24012.97492880 -.00000040  00000+0  45893-4 0  9994
2 06920 102.2673   7.6655 0006561 313.2893 109.7438 12.40362386272217
NOAA 4 [-]              
1 07529U 74089A   24012.91226867 -.00000053  00000+0 -42844-4 0  9996
2 07529 101.9774   5.8004 0009145  86.3793 343.3158 12.53175472248509
NOAA 5 [-]              
1 09057U 76077A   24012.88579150 -.00000037  00000+0  66030-4 0  9999
2 09057 102.1868 346.7164 0009512 161.7313 253.9782 12.37793918144813
TIROS N [-]             
1 11060U 78096A   24012.71620313  .00000307  00000+0  16806-3 0  9993
2 11060  98.5561  58.7902 0009509 289.6544  70.3606 14.18708475553028
NOAA 6 [-]              
1 11416U 79057A   24012.93220874  .00000629  00000+0  23959-3 0  9992
2 11416  98.6408  34.2704 0010342   8.7785 351.3578 14.34306555323854
NOAA 7 [-]              
1 12553U 81059A   24012.77350233  .00000145  00000+0  93927-4 0  9991
2 12553  98.9183  71.7849 0010500 281.7016  78.2980 14.17474373199153
NOAA 8 [-]              
1 13923U 83022A   24012.95243289  .00000332  00000+0  14841-3 0  9992
2 13923  98.7247  12.6899 0014529 333.7607  26.2837 14.29125811124450
NOAA 9 [-]              
1 15427U 84123A   24012.93205222  .00000282  00000+0  16476-3 0  9999
2 15427  99.1093   6.6159 0014529 342.2675  81.3375 14.16488636 17922
NOAA 10 [-]             
1 16969U 86073A   24012.94523965  .00000296  00000+0  13534-3 0  9992
2 16969  98.6262   0.4799 0013195  70.8192 343.4366 14.28501087943103
NOAA 11 [-]             
1 19531U 88089A   24012.92997668  .00000150  00000+0  98183-4 0  9995
2 19531  98.4964 342.5784 0010582 329.6778  30.3783 14.15472544822331
NOAA 12 [-]             
1 21263U 91032A   24012.97572458  .00000222  00000+0  11024-3 0  9991
2 21263  98.5470   7.7145 0014816  98.0399 262.2463 14.26223782698613
NOAA 13 [-]             
1 22739U 93050A   24012.88352684  .00000273  00000+0  16843-3 0  9999
2 22739  98.5847 336.5229 0010103 135.1676 225.0315 14.13115940568411
NOAA 14 [-]             
1 23455U 94089A   24012.96109734  .00000110  00000+0  78625-4 0  9990
2 23455  98.4274  17.6765 0010557 109.8181 250.4132 14.14338699497918
NOAA 15 [B]             
1 25338U 98030A   24013.10493208  .00000283  00000+0  13560-3 0  9998
2 25338  98.5862  43.3683 0011259  63.8264 296.4073 14.26470450335189
NOAA 16 [-]             
1 26536U 00055A   24012.86334291  .00000171  00000+0  11269-3 0  9997
2 26536  98.5556  59.4379 0009808 328.7692  31.2898 14.13514011498497
NOAA 17 [-]             
1 27453U 02032A   24012.89754361  .00000351  00000+0  16727-3 0  9994
2 27453  98.7441 323.7606 0012601  46.0063 314.2153 14.25459133120685
NOAA 18 [B]             
1 28654U 05018A   24013.15878200  .00000344  00000+0  20749-3 0  9995
2 28654  98.8908  91.3464 0014947 143.1002 217.1201 14.13098350961220
NOAA 19 [+]             
1 33591U 09005A   24013.15952372  .00000297  00000+0  18414-3 0  9997
2 33591  99.0720  67.1512 0013981  16.0074 344.1536 14.12904555769590
SUOMI NPP [+]           
1 37849U 11061A   24013.13110881  .00000184  00000+0  10797-3 0  9992
2 37849  98.7269 313.4680 0001311  65.8204 294.3109 14.19541299632723
NOAA 20 [+]             
1 43013U 17073A   24013.09556040  .00000164  00000+0  98502-4 0  9996
2 43013  98.7348 313.3847 0000567  89.4028 270.7213 14.19561113318758
NOAA 21 (JPSS-2) [+]    
1 54234U 22150A   24012.90084768  .00000192  00000+0  11171-3 0  9994
2 54234  98.7383 312.7481 0000953 107.0767 253.0513 14.19558269 60802
